ONEWEB-0233             
1 48795U 21045AE  26187.26134577  .00001147  00000+0  30125-2 0  9999
2 48795  87.8991 255.4346 0002087 109.2772 250.8584 13.15543356246809
ONEWEB-0190             
1 48796U 21045AF  26187.24879868  .00000217  00000+0  54209-3 0  9994
2 48796  87.8996 255.3999 0001983 118.9215 241.2115 13.15548954246871
ONEWEB-0236             
1 48797U 21045AG  26187.19017437  .00000105  00000+0  24351-3 0  9996
2 48797  87.8991 255.4202 0002165  96.9389 263.1988 13.15548146246756
ONEWEB-0248             
1 48798U 21045AH  26187.20284655  .00000019  00000+0  15673-4 0  9999
2 48798  87.9002 255.4030 0002257 110.9773 249.1599 13.15548479246915
ONEWEB-0225             
1 48799U 21045AJ  26187.22503005 -.00000040  00000+0 -13996-3 0  9996
2 48799  87.8996 255.4062 0002007 115.3194 244.8144 13.15547979246924
ONEWEB-0215             
1 48800U 21045AK  26187.19492285  .00000133  00000+0  31957-3 0  9990
2 48800  87.9004 255.3956 0002143 118.0270 242.1077 13.15549030246796
ONEWEB-0216             
1 48801U 21045AL  26187.20443086  .00000039  00000+0  69857-4 0  9994
2 48801  87.9001 255.4078 0001995  97.3790 262.7567 13.15547903246801
ONEWEB-0239             
1 48802U 21045AM  26187.20918345  .00000019  00000+0  17210-4 0  9994
2 48802  87.8990 255.4116 0002438 117.8194 242.3183 13.15548049246844
ONEWEB-0249             
1 48967U 21060A   26187.58408943 -.00000021  00000+0 -88814-4 0  9995
2 48967  87.9082 224.9253 0002165  97.1179 263.0199 13.16596447242166
ONEWEB-0250             
1 48968U 21060B   26187.62727491 -.00000020  00000+0 -76686-4 0  9996
2 48968  87.9083 222.6098 0003136  94.5527 265.5968 13.25835145242798
ONEWEB-0252             
1 48970U 21060D   26187.61498795  .00000030  00000+0  45951-4 0  9990
2 48970  87.9080 224.9117 0001837  95.0582 265.0759 13.16594936242218
ONEWEB-0253             
1 48971U 21060E   26187.60390617  .00000027  00000+0  35768-4 0  9995
2 48971  87.9078 224.9194 0002167  96.6238 263.5140 13.16594853242140
ONEWEB-0254             
1 48972U 21060F   26187.61340427  .00000055  00000+0  11122-3 0  9999
2 48972  87.9083 224.9154 0002217 102.8031 257.3348 13.16593697242146
ONEWEB-0255             
1 48973U 21060G   26187.65140219 -.00000012  00000+0 -64593-4 0  9997
2 48973  87.9083 224.9139 0002107  99.7147 260.4222 13.16593934242229
ONEWEB-0256             
1 48974U 21060H   26187.60153072 -.00000036  00000+0 -12854-3 0  9992
2 48974  87.9077 224.9273 0002021  91.9961 268.1402 13.16594501242186
ONEWEB-0257             
1 48975U 21060J   26187.63398458  .00000028  00000+0  39911-4 0  9998
2 48975  87.9081 224.9087 0001975  98.0506 262.0849 13.16593131242147
